[{"OBJECT_NAME":"STARLINK-30597","OBJECT_ID":"2023-160D","EPOCH":"2026-03-09T21:56:06.562176","MEAN_MOTION":15.26748428,"ECCENTRICITY":0.00010278,"INCLINATION":43.0011,"RA_OF_ASC_NODE":76.302,"ARG_OF_PERICENTER":248.1499,"MEAN_ANOMALY":111.9243,"EPHEMERIS_TYPE":0,"CLASSIFICATION_TYPE":"U","NORAD_CAT_ID":58078,"ELEMENT_SET_NO":999,"REV_AT_EPOCH":13298,"BSTAR":0.00075358598,"MEAN_MOTION_DOT":0.00020014,"MEAN_MOTION_DDOT":0},{"OBJECT_NAME":"REAL","OBJECT_ID":"2025-154G","EPOCH":"2026-03-09T17:20:09.670560","MEAN_MOTION":15.28408058,"ECCENTRICITY":0.00018528,"INCLINATION":97.4133,"RA_OF_ASC_NODE":137.2581,"ARG_OF_PERICENTER":118.5876,"MEAN_ANOMALY":241.555,"EPHEMERIS_TYPE":0,"CLASSIFICATION_TYPE":"U","NORAD_CAT_ID":64875,"ELEMENT_SET_NO":999,"REV_AT_EPOCH":3483,"BSTAR":0.0008290401,"MEAN_MOTION_DOT":0.00022901,"MEAN_MOTION_DDOT":0}]
